OBJECT_NAME,OBJECT_ID,EPOCH,MEAN_MOTION,ECCENTRICITY,INCLINATION,RA_OF_ASC_NODE,ARG_OF_PERICENTER,MEAN_ANOMALY,EPHEMERIS_TYPE,CLASSIFICATION_TYPE,NORAD_CAT_ID,ELEMENT_SET_NO,REV_AT_EPOCH,BSTAR,MEAN_MOTION_DOT,MEAN_MOTION_DDOT
CUTE-1 (CO-55),2003-031E,2026-06-25T23:00:28.348416,14.24340671,.00100671,98.6736,185.4073,153.3060,206.8639,0,U,27844,999,19292,.13912556E-3,.278E-5,0
CUBESAT XI-IV (CO-57),2003-031J,2026-06-25T22:50:11.464512,14.23625133,.00095908,98.6767,185.1059,171.2746,188.8601,0,U,27848,999,19262,.12262206E-3,.236E-5,0
CUBESAT XI-V,2005-043F,2026-06-26T05:39:13.895136,14.72654434,.0014267,98.2992,333.0476,171.8750,188.2691,0,U,28895,999,10308,.23138605E-3,.1423E-4,0
CUTE-1.7+APD II (CO-65),2008-021C,2026-06-26T06:20:16.459296,15.09534115,.00088532,97.8274,158.8717,11.3283,348.8143,0,U,32785,999,98656,.32854789E-3,.5208E-4,0
CANX-2,2008-021H,2026-06-26T04:38:47.799456,15.05679693,.00108759,97.8637,157.1467,24.7511,335.4235,0,U,32790,999,98616,.27677493E-3,.3939E-4,0
SEEDS II (CO-66),2008-021J,2026-06-25T22:45:21.318624,15.33033686,.00004268,97.7517,175.2655,222.9381,137.1827,0,U,32791,999,98863,.67552337E-3,.21509E-3,0
SWISSCUBE,2009-051B,2026-06-25T17:17:57.094080,14.62496515,.00065814,98.4029,84.7576,174.6664,185.4608,0,U,35932,999,89040,.19486624E-3,.938E-5,0
BEESAT-1,2009-051C,2026-06-25T17:37:56.312256,14.61733092,.00047793,98.3958,84.3893,186.3683,173.7458,0,U,35933,999,89043,.1664679E-3,.781E-5,0
ITUPSAT1,2009-051E,2026-06-26T06:44:51.831744,14.60453195,.00067259,98.4042,84.1263,201.3740,158.7180,0,U,35935,999,89006,.16205227E-3,.737E-5,0
TISAT 1,2010-035E,2026-06-25T19:19:06.529152,15.32016545,.00025531,98.0701,124.1198,153.3468,206.7903,0,U,36799,999,86902,.80171204E-3,.24751E-3,0
AEROCUBE 4.5A,2012-048K,2026-06-25T21:46:56.954496,16.07344693,.00186927,64.6191,354.7123,248.7404,111.1768,0,U,38767,999,37405,.12854161E-2,.10443E-1,.62559159E-3
STRAND-1,2013-009E,2026-06-26T05:54:20.580192,14.37168321,.00082308,98.3924,357.2575,196.0425,164.0502,0,U,39090,999,69836,.10993968E-3,.284E-5,0
BRITE-AUSTRIA,2013-009F,2026-06-25T23:37:19.886880,14.36545238,.00095698,98.3998,356.2023,207.8221,152.2455,0,U,39091,999,69831,.6755443E-4,.156E-5,0
NEE-01 PEGASO,2013-018B,2026-06-25T08:54:48.053664,14.93700411,.001354,98.1231,320.7925,133.4455,226.7893,0,U,39151,999,71192,.23719E-3,.2452E-4,0
POPACS 2,2013-055E,2026-06-25T21:34:59.734272,14.91433941,.04164763,80.9906,134.2187,165.8045,195.5318,0,U,39269,999,66451,.28728265E-3,.17101E-3,0
POPACS 3,2013-055F,2026-06-26T02:53:23.532000,14.56278446,.05512079,81.0000,219.5008,42.8006,321.4756,0,U,39270,999,63985,.26100018E-3,.11066E-3,0
ZACUBE-1 (TSHEPISOSAT),2013-066B,2026-06-26T04:56:12.194016,15.01234415,.00420471,97.8049,139.5889,216.9401,142.8926,0,U,39417,999,68208,.26694238E-3,.3428E-4,0
WNISAT-1,2013-066H,2026-06-25T23:53:08.506176,14.58078197,.01625083,97.7210,325.5267,203.6978,155.6680,0,U,39423,999,66801,.20133651E-3,.1061E-4,0
TRITON-1,2013-066M,2026-06-26T00:10:16.120992,14.81732282,.00889814,97.8241,86.6133,204.7337,154.9598,0,U,39427,999,67539,.22537667E-3,.1845E-4,0
GOMX-1,2013-066Q,2026-06-26T05:48:51.237216,14.69488586,.0129843,97.6486,17.1335,48.8122,312.4196,0,U,39430,999,67124,.27403319E-3,.1798E-4,0
CUBEBUG-2 (LO-74),2013-066AA,2026-06-26T07:22:07.687488,14.93833268,.00575025,97.8903,126.3239,358.9510,1.1580,0,U,39440,999,67835,.4181653E-3,.4524E-4,0
NEE-02 KRYSAOR,2013-066AB,2026-06-25T13:19:35.190624,14.86653035,.0067228,97.8891,115.7100,43.3544,317.2932,0,U,39441,999,67744,.28387E-3,.2568E-4,0
FUNCUBE-1 (AO-73),2013-066AE,2026-06-26T04:54:04.434336,15.09588977,.00365625,97.8271,148.8384,170.3279,189.8662,0,U,39444,999,68102,.50781209E-3,.8222E-4,0
UWE-3,2013-066AG,2026-06-25T20:06:32.092416,14.97092153,.00468075,97.8708,132.9703,291.8607,67.7640,0,U,39446,999,67887,.38106409E-3,.4431E-4,0
BRITE-CA1 (TORONTO),2014-033L,2026-06-26T06:40:38.582976,14.72689851,.00773181,97.9748,306.0390,247.3952,111.9063,0,U,40020,999,64355,.13249643E-3,.831E-5,0
DUCHIFAT-1,2014-033M,2026-06-25T17:10:11.458560,15.66313669,.00015176,98.0450,237.0839,101.6443,258.4986,0,U,40021,999,65708,.13462058E-2,.141113E-2,0
NANOSATC-BR1,2014-033Q,2026-06-26T00:36:38.858400,15.31726656,.00051064,98.0722,210.1973,141.8822,218.2780,0,U,40024,999,65533,.64466712E-3,.19699E-3,0
QB50P1,2014-033R,2026-06-26T05:52:29.445600,15.18390211,.00087417,98.0964,189.0261,183.1826,176.9352,0,U,40025,999,65440,.48339873E-3,.9878E-4,0
QB50P2,2014-033Y,2026-06-26T05:07:23.509920,15.15268593,.00087825,98.0752,174.6559,136.5428,223.6497,0,U,40032,999,65403,.45049962E-3,.8412E-4,0
PERSEUS-M2,2014-033AD,2026-06-26T03:54:03.499200,14.95541428,.00099516,97.9972,127.8856,271.5685,88.4395,0,U,40037,999,65212,.17920529E-3,.1927E-4,0
